STARLINK-30824          
1 58176U 23167B   26068.36077985  .00003121  00000+0  12601-3 0  9992
2 58176  43.0003 145.3645 0001030 257.0695 103.0041 15.26728143130939
FLOCK 4G-9              
1 62622U 25009P   26068.80935633  .00010752  00000+0  41817-3 0  9991
2 62622  97.4000 150.6115 0003614 328.2191  31.8829 15.26202239 63696
